FENGYUN 1C DEB          
1 38814U 99025EVE 17327.54069969  .00003541  00000-0  15080-2 0  9996
2 38814  98.3621  78.5899 0116375  27.0727 341.9565 14.22149554419889
